ONEWEB-0597             
1 54663U 22166X   24365.39974591  .00000096  00000+0  20066-3 0  9999
2 54663  87.9302 350.3313 0001920  78.9791 281.1558 13.21824942101026
ONEWEB-0600             
1 54664U 22166Y   24365.68518286  .00000048  00000+0  84709-4 0  9999
2 54664  87.9295 350.3038 0001800  80.8672 279.2666 13.21825556101502
ONEWEB-0601             
1 54665U 22166Z   24365.22312390  .00000069  00000+0  13454-3 0  9999
2 54665  87.9302 350.3745 0002163  78.2571 281.8805 13.21824817101625
ONEWEB-0602             
1 54666U 22166AA  24365.41551976  .00000051  00000+0  92949-4 0  9994
2 54666  87.9303 350.3382 0001848  77.1244 283.0096 13.21826950101039
ONEWEB-0603             
1 54667U 22166AB  24365.42024468  .00000113  00000+0  24111-3 0  9991
2 54667  87.9276 350.3239 0001997  77.7415 282.3943 13.21825173100961
ONEWEB-0604             
1 54668U 22166AC  24365.71041659  .00000069  00000+0  13469-3 0  9999
2 54668  87.9298 350.2501 0001766  76.5454 283.5877 13.21826488101433
ONEWEB-0605             
1 54669U 22166AD  24365.70411708  .00000033  00000+0  48142-4 0  9993
2 54669  87.9298 350.2829 0002496  82.7111 277.4306 13.21826459101502
ONEWEB-0606             
1 54670U 22166AE  24365.72618942 -.00000005  00000+0 -44032-4 0  9991
2 54670  87.9301 350.2796 0001730  91.6651 268.4681 13.21827789101558
